ONEWEB-0431             
1 51630U 22012J   23347.69054590 -.00000373  00000+0 -11061-2 0  9994
2 51630  87.8915 218.3024 0001930 103.1122 257.0220 13.10375036 90600
ONEWEB-0434             
1 51631U 22012K   23347.59157999 -.00000493  00000+0 -14496-2 0  9999
2 51631  87.8915 218.3243 0001224  80.3069 279.8197 13.10370618 89284
ONEWEB-0435             
1 51632U 22012L   23347.59970983 -.00000584  00000+0 -17101-2 0  9993
2 51632  87.8917 218.3122 0001208  99.1092 261.0172 13.10374163 89273
ONEWEB-0436             
1 51633U 22012M   23347.58729436  .00000010  00000+0 -78261-5 0  9998
2 51633  87.9203 188.0859 0001308  82.1259 278.0021 13.17649250 94266
ONEWEB-0438             
1 51634U 22012N   23347.65982196 -.00000137  00000+0 -42745-3 0  9998
2 51634  87.8913 218.3010 0001377  70.1692 289.9583 13.10371171 90609
ONEWEB-0439             
1 51635U 22012P   23347.66306484 -.00008035  00000+0 -23065-1 0  9997
2 51635  87.8914 218.2842 0001422  75.2576 284.8709 13.10401349 90572
ONEWEB-0442             
1 51636U 22012Q   23347.57885749  .00005176  00000+0  13295-1 0  9999
2 51636  87.9211 188.1157 0002054  76.1039 284.0321 13.17623108 94251
ONEWEB-0443             
1 51637U 22012R   23347.59782544 -.00000263  00000+0 -70953-3 0  9991
2 51637  87.9207 188.1161 0000891  89.2956 270.8278 13.17648540 93016
